#aV2007  7 18  0  0   .00000000      96 DD+AD WGS84 FIT  NGA
## 1436 259200.00000000   900.00000000 54299  .0000000000000
+   31     1  2  3  4  5  6  7  8  9 10 11 12 13 14 16 17 18
+         19 20 21 22 23 24 25 26 27 28 29 30 31 32  0  0  0
+          0  0  0  0  0  0  0  0  0  0  0  0  0  0  0  0  0
+          0  0  0  0  0  0  0  0  0  0  0  0  0  0  0  0  0
+          0  0  0  0  0  0  0  0  0  0  0  0  0  0  0  0  0
++         0  0  0  0  0  0  0  0  0  0  0  0  0  0  0  0  0
++         0  0  0  0  0  0  0  0  0  0  0  0  0  0  0  0  0
++         0  0  0  0  0  0  0  0  0  0  0  0  0  0  0  0  0
++         0  0  0  0  0  0  0  0  0  0  0  0  0  0  0  0  0
++         0  0  0  0  0  0  0  0  0  0  0  0  0  0  0  0  0
%c cc cc ccc ccc cccc cccc cccc cccc ccccc ccccc ccccc ccccc
%c cc cc ccc ccc cccc cccc cccc cccc ccccc ccccc ccccc ccccc
%f  0.0000000  0.000000000  0.00000000000  0.000000000000000
%f  0.0000000  0.000000000  0.00000000000  0.000000000000000
%i    0    0    0    0      0      0      0      0         0
%i    0    0    0    0      0      0      0      0         0
/*      NGA, ST. LOUIS,MO.                                  
/*   EPHEMERIS COMPUTED FROM  3 DAYS OF DATA                
/* CCCCCCCCCCCCCCCCCCCCCCCCCCCCCCCCCCCCCCCCCCCCCCCCCCCCCCCCC
/* CCCCCCCCCCCCCCCCCCCCCCCCCCCCCCCCCCCCCCCCCCCCCCCCCCCCCCCCC
*  2007  7 18 10 30   .00000000                                                 
P  1 -13904.637823  11333.053643 -19351.896848    140.588281                    
V  1   1530.824895 -24948.448729 -15611.714512       .021954                    
P  2  22980.145287 -12908.638490   1228.280829    122.428533                    
V  2   3250.863235   2326.900058 -31559.848028       .028021                    
P  3 -11153.310719  17708.890098  15943.039444     88.291623                    
V  3  -3849.870571 -20718.726073  20393.376943       .055480                    
P  4  24632.513156  -4607.451020  -9386.148781      6.155934                    
V  4  -9334.015365   7615.724654 -28079.209105      -.016267                    
P  5  -9177.925037 -18724.096885 -16783.452190    192.269812                    
V  5  19362.716642   7990.911646 -19640.252691       .443529                    
P  6  -8105.431119 -22678.995041  11350.432026    236.500736                    
V  6   3297.513285 -14155.523457 -26410.136021       .055084                    
P  7 -10358.071093 -20466.930078  13690.253847    198.465668                    
V  7   2541.675223 -16933.991267 -24058.891050      -.205194                    
P  8  20502.511028   3076.493458  16742.027442   -115.380374                    
V  8 -18864.890055   9878.308931  20708.029229      -.015144                    
P  9   7718.777976 -18497.476696 -17928.061823     79.198618                    
V  9  19613.904410  -9254.019332  18837.142330       .016678                    
P 10  15139.533034  -6862.890371  20670.313344    104.934279                    
V 10  21413.917872  15477.209605 -10177.153890       .005303                    
P 11  -4076.127159  20058.816488 -16888.837875     20.684104                    
V 11 -19081.724305  10580.717191  17584.990782       .006603                    
P 12  -2947.599693 -17915.557515 -19303.813354    -49.814262                    
V 12  21440.482876  12345.619783 -14588.883684      -.011592                    
P 13   6223.307910  22500.073122  12587.909556    190.886120                    
V 13  -2855.599810  15905.179613 -26758.536542       .031465                    
P 14 -14138.092671  -4640.455655 -21924.861882     30.580382                    
V 14   2259.969385 -27861.351633   4338.130976       .020100                    
P 16 -19273.896311   2362.962186  18273.014157    163.422523                    
V 16 -18326.424396 -13918.135089 -17451.708902       .025824                    
P 17  14424.115946   7130.655735 -21133.757940     60.780297                    
V 17  -2177.682895  26779.123327   7411.355678      -.013096                    
P 18 -19440.432234 -17804.229084   4680.175073   -243.938630                    
V 18   6217.015744   1093.940638  30612.030489       .012954                    
P 19  -7838.106601  24338.412774   7043.551823     51.596298                    
V 19  -1816.215791  -9118.591682  30040.295675       .029252                    
P 20   5619.570023  18742.236998 -18082.209753    -26.931459                    
V 20 -20150.726805 -10714.199379 -17438.181959      -.005031                    
P 21 -13507.502249 -10343.161836  20648.903145     78.658427                    
V 21  23095.477222 -11691.474606   8725.508752       .000492                    
P 22 -23331.294433 -10397.806900  -7201.807625    191.125088                    
V 22  -5869.866873  -7862.901966  29689.113518       .016637                    
P 23    619.307868  26265.646433   2897.706900    182.902062                    
V 23  -2871.350426   3656.584067 -31833.838787       .033094                    
P 24    273.763390 -16463.239989  21096.421996     16.031538                    
V 24  24239.641623 -10177.652596  -8053.411040       .029382                    
P 25   5926.256597  14396.505150  21895.571581    371.411354                    
V 25 -22820.074711  14295.887745  -3128.081945       .168231                    
P 26   8607.935600 -22479.225640  10118.138392   -313.744469                    
V 26    933.371773  13796.059828  29143.077215      -.221563                    
P 27  13314.472571   9527.337009  21602.516899    123.354789                    
V 27 -22049.184528  13556.888285   7627.547354       .023706                    
P 28  23119.001254  12932.617517  -3359.317870     -3.217408                    
V 28   2435.705921   4665.619210  31187.082937      -.007580                    
P 29  10671.441704 -19326.477108  14677.576278      4.542367                    
V 29    678.874008  18448.190292  24497.240786       .001782                    
P 30 -14332.266697 -18902.222314 -12378.227532     39.858197                    
V 30  14353.633271   5626.267481 -25764.028316       .010167                    
P 31 -24569.572961   7160.957901  -7057.660606     15.400517                    
V 31   6994.025939  -6505.932754 -30045.837525      -.009892                    
P 32 -19844.447865   -615.244482 -17109.264194    516.112413                    
V 32 -16919.282358 -15177.834734  19762.870291       .202916                    
EOF
